NORAD_CAT_ID,OBJECT_NAME,OBJECT_TYPE,EPOCH,MEAN_MOTION,ECCENTRICITY,INCLINATION,RA_OF_ASC_NODE,ARG_OF_PERICENTER,MEAN_ANOMALY,BSTAR,MEAN_MOTION_DOT,MEAN_MOTION_DDOT,TLE_LINE0,TLE_LINE1,TLE_LINE2,SEMIMAJOR_AXIS,PERIOD,APOGEE,PERIGEE,DECAYED
55957.0,STARLINK-5884,PAYLOAD,2023-11-20 04:41:02,14.98341422,0.0002543,70.0005,223.7038,276.54,83.5469,-4.985e-05,-6.88e-06,0.0,0 STARLINK-5884,1 55957U 23037AV  23324.19516213 -.00000688  00000-0 -49850-4 0  9992,2 55957  70.0005 223.7038 0002543 276.5400  83.5469 14.98341422 38574,6950.158,96.106,573.79,570.255,0.0
55957.0,STARLINK-5884,PAYLOAD,2023-11-20 19:06:14,14.98339457,0.0002482,70.0009,222.1887,276.0851,84.0025,-0.00016396,-2.049e-05,0.0,0 STARLINK-5884,1 55957U 23037AV  23324.79600241 -.00002049  00000-0 -16396-3 0  9994,2 55957  70.0009 222.1887 0002482 276.0851  84.0025 14.98339457 39008,6950.164,96.106,573.754,570.304,0.0
55957.0,STARLINK-5884,PAYLOAD,2023-11-20 22:18:30,14.98339256,0.0002439,70.0009,221.8522,275.7947,84.2934,-0.00014396,-1.811e-05,0.0,0 STARLINK-5884,1 55957U 23037AV  23324.92952115 -.00001811  00000-0 -14396-3 0  9993,2 55957  70.0009 221.8522 0002439 275.7947  84.2934 14.98339256 38685,6950.164,96.106,573.724,570.334,0.0
55957.0,STARLINK-5884,PAYLOAD,2023-11-21 11:07:35,14.98331808,0.0002292,70.0009,220.5058,273.0614,87.0282,-9.1849e-05,-1.189e-05,0.0,0 STARLINK-5884,1 55957U 23037AV  23325.46360201 -.00001189  00000-0 -91849-4 0  9999,2 55957  70.0009 220.5058 0002292 273.0614  87.0282 14.98331808 38765,6950.187,96.107,573.645,570.459,0.0
55957.0,STARLINK-5884,PAYLOAD,2023-11-21 20:44:23,14.98328486,0.0002416,70.0008,219.4959,273.3802,86.708,-3.996e-05,-5.7e-06,0.0,0 STARLINK-5884,1 55957U 23037AV  23325.86416187 -.00000570  00000-0 -39960-4 0  9997,2 55957  70.0008 219.4959 0002416 273.3802  86.7080 14.98328486 38828,6950.198,96.107,573.742,570.383,0.0
55957.0,STARLINK-5884,PAYLOAD,2023-11-22 03:08:55,14.98334248,0.0002475,70.0003,218.8225,271.9624,88.1251,2.3003e-05,1.82e-06,0.0,0 STARLINK-5884,1 55957U 23037AV  23326.13119618  .00000182  00000-0  23003-4 0  9995,2 55957  70.0003 218.8225 0002475 271.9624  88.1251 14.98334248 39205,6950.18,96.107,573.765,570.325,0.0
55957.0,STARLINK-5884,PAYLOAD,2023-11-22 19:10:16,14.98328545,0.0002271,70.0003,217.139,265.6952,94.3948,-3.1081e-05,-4.64e-06,0.0,0 STARLINK-5884,1 55957U 23037AV  23326.79880120 -.00000464  00000-0 -31081-4 0  9990,2 55957  70.0003 217.1390 0002271 265.6952  94.3948 14.98328545 39304,6950.197,96.107,573.641,570.484,0.0
55957.0,STARLINK-5884,PAYLOAD,2023-11-22 20:46:24,14.98327732,0.0002355,70.0003,216.9706,268.1925,91.8964,-2.628e-05,-4.06e-06,0.0,0 STARLINK-5884,1 55957U 23037AV  23326.86556163 -.00000406  00000-0 -26280-4 0  9996,2 55957  70.0003 216.9706 0002355 268.1925  91.8964 14.98327732 38972,6950.2,96.107,573.702,570.428,0.0
55957.0,STARLINK-5884,PAYLOAD,2023-11-23 03:10:56,14.98330697,0.0002171,70.0006,216.2979,263.0181,97.0731,1.9628e-07,-9.1e-07,0.0,0 STARLINK-5884,1 55957U 23037AV  23327.13259930 -.00000091  00000-0  19628-6 0  9998,2 55957  70.0006 216.2979 0002171 263.0181  97.0731 14.98330697 39014,6950.191,96.107,573.565,570.547,0.0
55957.0,STARLINK-5884,PAYLOAD,2023-11-23 19:12:17,14.98321411,0.0002405,70.001,214.6157,270.2951,89.7932,-2.5889e-05,-4.02e-06,0.0,0 STARLINK-5884,1 55957U 23037AV  23327.80020717 -.00000402  00000-0 -25889-4 0  9992,2 55957  70.0010 214.6157 0002405 270.2951  89.7932 14.98321411 39457,6950.219,96.108,573.756,570.413,0.0
55957.0,STARLINK-5884,PAYLOAD,2023-11-23 20:48:26,14.98320983,0.0002409,70.0012,214.4476,271.2554,88.8329,-2.5571e-05,-3.98e-06,0.0,0 STARLINK-5884,1 55957U 23037AV  23327.86696783 -.00000398  00000-0 -25571-4 0  9992,2 55957  70.0012 214.4476 0002409 271.2554  88.8329 14.98320983 39122,6950.221,96.108,573.76,570.411,0.0
55957.0,STARLINK-5884,PAYLOAD,2023-11-24 01:36:50,14.98327491,0.0002665,70.0009,213.9419,282.8441,77.242,-0.00012016,-1.526e-05,0.0,0 STARLINK-5884,1 55957U 23037AV  23328.06724740 -.00001526  00000-0 -12016-3 0  9993,2 55957  70.0009 213.9419 0002665 282.8441  77.2420 14.98327491 39154,6950.201,96.107,573.918,570.213,0.0
55957.0,STARLINK-5884,PAYLOAD,2023-11-24 19:14:18,14.98332079,0.0002441,70.0007,212.0912,265.1326,94.9554,3.1024e-05,2.77e-06,0.0,0 STARLINK-5884,1 55957U 23037AV  23328.80160034  .00000277  00000-0  31024-4 0  9996,2 55957  70.0007 212.0912 0002441 265.1326  94.9554 14.98332079 39600,6950.186,96.107,573.748,570.355,0.0
55957.0,STARLINK-5884,PAYLOAD,2023-11-24 22:26:34,14.98331264,0.000264,69.9997,211.7533,265.6184,94.4673,2.9663e-05,2.61e-06,0.0,0 STARLINK-5884,1 55957U 23037AV  23328.93512064  .00000261  00000-0  29663-4 0  9993,2 55957  69.9997 211.7533 0002640 265.6184  94.4673 14.98331264 39284,6950.189,96.107,573.889,570.219,0.0
55957.0,STARLINK-5884,PAYLOAD,2023-11-25 03:14:58,14.98336309,0.000257,69.9997,211.2478,264.7236,95.363,7.8276e-05,8.41e-06,0.0,0 STARLINK-5884,1 55957U 23037AV  23329.13539529  .00000841  00000-0  78276-4 0  9999,2 55957  69.9997 211.2478 0002570 264.7236  95.3630 14.98336309 39319,6950.173,96.107,573.825,570.252,0.0
55957.0,STARLINK-5884,PAYLOAD,2023-11-25 22:28:34,14.9833265,0.0002316,70.0006,209.2297,256.2669,103.8232,0.0001253,1.403e-05,0.0,0 STARLINK-5884,1 55957U 23037AV  23329.93651479  .00001403  00000-0  12530-3 0  9991,2 55957  70.0006 209.2297 0002316 256.2669 103.8232 14.98332650 39434,6950.185,96.107,573.659,570.44,0.0
55957.0,STARLINK-5884,PAYLOAD,2023-11-26 01:40:50,14.98340695,0.0002829,69.9993,208.8916,271.6674,88.4161,0.00017956,2.051e-05,0.0,0 STARLINK-5884,1 55957U 23037AV  23330.07002811  .00002051  00000-0  17956-3 0  9995,2 55957  69.9993 208.8916 0002829 271.6674  88.4161 14.98340695 39791,6950.16,96.106,573.991,570.059,0.0
55957.0,STARLINK-5884,PAYLOAD,2023-11-26 19:18:20,14.98326454,0.0002857,69.9997,207.0405,263.4438,96.6396,-0.00013704,-1.728e-05,0.0,0 STARLINK-5884,1 55957U 23037AV  23330.80440437 -.00001728  00000-0 -13704-3 0  9995,2 55957  69.9997 207.0405 0002857 263.4438  96.6396 14.98326454 39908,6950.204,96.107,574.055,570.083,0.0
55957.0,STARLINK-5884,PAYLOAD,2023-11-26 22:30:36,14.98327682,0.000274,69.9992,206.7031,262.597,97.4877,-0.00013287,-1.678e-05,0.0,0 STARLINK-5884,1 55957U 23037AV  23330.93792354 -.00001678  00000-0 -13287-3 0  9997,2 55957  69.9992 206.7031 0002740 262.5970  97.4877 14.98327682 39587,6950.2,96.107,573.969,570.161,0.0
55957.0,STARLINK-5884,PAYLOAD,2023-11-27 14:31:57,14.98328285,0.0002648,69.9994,205.0197,258.2124,101.8739,-7.4418e-05,-9.81e-06,0.0,0 STARLINK-5884,1 55957U 23037AV  23331.60552234 -.00000981  00000-0 -74418-4 0  9993,2 55957  69.9994 205.0197 0002648 258.2124 101.8739 14.98328285 39682,6950.198,96.107,573.904,570.223,0.0
55957.0,STARLINK-5884,PAYLOAD,2023-11-27 19:20:21,14.9833307,0.0002737,69.9995,204.5158,260.1343,99.9507,-8.5171e-05,-1.109e-05,0.0,0 STARLINK-5884,1 55957U 23037AV  23331.80579973 -.00001109  00000-0 -85171-4 0  9995,2 55957  69.9995 204.5158 0002737 260.1343  99.9507 14.98333070 40059,6950.183,96.107,573.951,570.146,0.0
55957.0,STARLINK-5884,PAYLOAD,2023-11-27 22:32:36,14.98335723,0.00026,69.9996,204.1787,257.7969,102.2899,-6.3549e-05,-8.51e-06,0.0,0 STARLINK-5884,1 55957U 23037AV  23331.93931706 -.00000851  00000-0 -63549-4 0  9993,2 55957  69.9996 204.1787 0002600 257.7969 102.2899 14.98335723 39731,6950.175,96.107,573.847,570.233,0.0
55957.0,STARLINK-5884,PAYLOAD,2023-11-28 01:44:52,14.9833704,0.0002574,69.9996,203.8421,255.631,104.4564,-3.7894e-05,-5.45e-06,0.0,0 STARLINK-5884,1 55957U 23037AV  23332.07283512 -.00000545  00000-0 -37894-4 0  9998,2 55957  69.9996 203.8421 0002574 255.6310 104.4564 14.98337040 39758,6950.171,96.107,573.825,570.247,0.0
55957.0,STARLINK-5884,PAYLOAD,2023-11-28 19:22:21,14.9833621,0.0002713,69.9999,201.9905,253.8325,106.2536,-7.9844e-05,-1.046e-05,0.0,0 STARLINK-5884,1 55957U 23037AV  23332.80719663 -.00001046  00000-0 -79844-4 0  9998,2 55957  69.9999 201.9905 0002713 253.8325 106.2536 14.98336210 40207,6950.174,96.107,573.924,570.153,0.0
55957.0,STARLINK-5884,PAYLOAD,2023-11-28 22:34:38,14.98325,0.0002881,70.0002,201.6531,262.9878,97.0954,9.1104e-05,9.94e-06,0.0,0 STARLINK-5884,1 55957U 23037AV  23332.94071895  .00000994  00000-0  91104-4 0  9993,2 55957  70.0002 201.6531 0002881 262.9878  97.0954 14.98325000 39885,6950.208,96.107,574.076,570.071,0.0
55957.0,STARLINK-5884,PAYLOAD,2023-11-29 01:46:54,14.98326768,0.0002879,70.0002,201.3169,262.7562,97.327,9.7727e-05,1.073e-05,0.0,0 STARLINK-5884,1 55957U 23037AV  23333.07423779  .00001073  00000-0  97727-4 0  9996,2 55957  70.0002 201.3169 0002879 262.7562  97.3270 14.98326768 40242,6950.203,96.107,574.069,570.067,0.0
55957.0,STARLINK-5884,PAYLOAD,2023-11-30 19:26:24,14.98318373,0.0003201,70.0026,196.9482,213.9172,146.1782,-0.00030958,-3.784e-05,0.0,0 STARLINK-5884,1 55957U 23037AV  23334.81001068 -.00003784  00000-0 -30958-3 0  9997,2 55957  70.0026 196.9482 0003201 213.9172 146.1782 14.98318373 40503,6950.229,96.108,574.319,569.869,0.0
55957.0,STARLINK-5884,PAYLOAD,2023-12-01 00:14:48,14.98327176,0.0002678,70.0007,196.4372,253.797,106.2894,-2.7415e-05,-4.2e-06,0.0,0 STARLINK-5884,1 55957U 23037AV  23335.01027970 -.00000420  00000-0 -27415-4 0  9999,2 55957  70.0007 196.4372 0002678 253.7970 106.2894 14.98327176 40535,6950.202,96.107,573.928,570.205,0.0
55957.0,STARLINK-5884,PAYLOAD,2023-12-01 19:28:25,14.98299192,0.0002537,70.0008,194.4192,246.1205,113.9688,0.00013609,1.53e-05,0.0,0 STARLINK-5884,1 55957U 23037AV  23335.81141051  .00001530  00000-0  13609-3 0  9994,2 55957  70.0008 194.4192 0002537 246.1205 113.9688 14.98299192 40650,6950.288,96.109,573.916,570.39,0.0
55957.0,STARLINK-5884,PAYLOAD,2023-12-01 22:40:40,14.98333838,0.0002522,70.0013,194.0835,258.5398,101.5478,0.00028194,3.273e-05,0.0,0 STARLINK-5884,1 55957U 23037AV  23335.94490757  .00003273  00000-0  28194-3 0  9999,2 55957  70.0013 194.0835 0002522 258.5398 101.5478 14.98333838 40331,6950.181,96.107,573.799,570.293,0.0
